LEMUR-2-HUBBLE-4        
1 64565U 25135AP  26190.71498154  .00001061  00000+0  10570-3 0  9992
2 64565  97.7714 304.3583 0002226 178.1277 181.9951 14.93674474 57234
LEMUR-2-SEJONG-2        
1 64586U 25135BL  26190.83373500  .00002308  00000+0  20624-3 0  9991
2 64586  97.7702 305.7041 0003483 243.4766 116.6099 14.96887799 57331
LEMUR-2-HUBBLE-5        
1 64840U 25135BT  26190.25698740  .00001340  00000+0  13040-3 0  9995
2 64840  97.7734 304.5681 0004115 260.6132  99.4623 14.94201118 57207
LEMUR-2-KARENDARRELL    
1 64841U 25135BU  26189.86116779  .00004672  00000+0  37564-3 0  9996
2 64841  97.7693 306.0385 0011750 124.4354 235.7982 15.00440878 57261
LEMUR-2-LUCILLE-ROSE    
1 65403U 25135BV  26190.56816341  .00004508  00000+0  36243-3 0  9993
2 65403  97.7711 306.7804 0014154 206.4413 153.6090 15.00445642 51994
LEMUR-2-AFFIE-WAUWIE    
1 66295U 25248C   26189.50541898  .00015242  00000+0  55604-3 0  9991
2 66295  45.3917 359.4149 0008528 217.2941 142.7357 15.28058168 37859
OTTER SDM               
1 66678U 25276N   26190.17264076  .00004363  00000+0  20565-3 0  9992
2 66678  97.4202 263.2859 0004240 282.7766  77.2995 15.20009823 33759
LEMUR-2-STAS-GORBUK     
1 66686U 25276W   26189.73157241  .00003772  00000+0  18027-3 0  9999
2 66686  97.4237 262.9047 0003436 281.4027  78.6822 15.19615471 33689
LEMUR-2-TEODOR          
1 66768U 25276DG  26190.15212511  .00004341  00000+0  19716-3 0  9999
2 66768  97.4142 263.5823 0002324  94.0564 266.0937 15.21295344 33780
LEMUR-2-LAILA           
1 66776U 25276DQ  26189.72822619  .00003860  00000+0  17456-3 0  9999
2 66776  97.4166 263.2996 0002898 104.2252 255.9306 15.21517643 33727
LEMUR-2-CELIJO-SB-PK    
1 66781U 25276DW  26189.71530559  .00004042  00000+0  32738-3 0  9996
2 66781  97.5199 259.7831 0007336  80.2189 279.9863 15.00241883 25858
LEMUR-2-FINNIAN         
1 66782U 25276DX  26189.82039194  .00001968  00000+0  16039-3 0  9998
2 66782  97.5333 260.1371 0008328  23.4790 336.6813 15.00570270 23245
LEMUR-2-STARLIGHT       
1 66783U 25276DY  26190.12930303  .00004197  00000+0  34756-3 0  9999
2 66783  97.5228 260.0177 0014764  64.9575 295.3180 14.99306207 33483
LEMUR-2-TARTIFLETTE     
1 66784U 25276DZ  26190.12764786  .00003426  00000+0  28474-3 0  9994
2 66784  97.5229 260.0239 0013793  72.8301 287.4432 14.99294218 33480
LEMUR-2-VUKASIN         
1 66785U 25276EA  26189.76947050  .00003433  00000+0  27694-3 0  9991
2 66785  97.5244 260.0251 0004051  73.4291 286.7378 15.00508276 33389
LEMUR-2-HOTSPUR-TOM     
1 66786U 25276EB  26189.98817541  .00003597  00000+0  29943-3 0  9997
2 66786  97.5219 259.8657 0013875  64.3983 295.8673 14.99200748 33399
